STARLINK-31047          
1 58783U 24011U   26068.04255429  .00000501  00000+0  29031-4 0  9996
2 58783  53.1608   1.1321 0000866  94.8099 265.3001 15.30194233120385
PHISAT 2                
1 60470U 24149C   26068.78834181  .00008925  00000+0  31421-3 0  9996
2 60470  97.3806 148.6498 0001175 168.6230 191.5037 15.29548631 86792
